[{"OBJECT_NAME":"STARLINK-5076","OBJECT_ID":"2023-014L","EPOCH":"2026-01-15T19:02:45.354336","MEAN_MOTION":14.98331964,"ECCENTRICITY":0.00028369,"INCLINATION":69.9988,"RA_OF_ASC_NODE":197.7615,"ARG_OF_PERICENTER":271.9434,"MEAN_ANOMALY":88.1401,"EPHEMERIS_TYPE":0,"CLASSIFICATION_TYPE":"U","NORAD_CAT_ID":55401,"ELEMENT_SET_NO":999,"REV_AT_EPOCH":16413,"BSTAR":4.3747845e-5,"MEAN_MOTION_DOT":4.29e-6,"MEAN_MOTION_DDOT":0},{"OBJECT_NAME":"STARLINK-5071","OBJECT_ID":"2023-014M","EPOCH":"2026-01-15T19:32:48.300288","MEAN_MOTION":14.98340821,"ECCENTRICITY":0.00027132,"INCLINATION":70.0001,"RA_OF_ASC_NODE":197.8352,"ARG_OF_PERICENTER":261.8839,"MEAN_ANOMALY":98.2012,"EPHEMERIS_TYPE":0,"CLASSIFICATION_TYPE":"U","NORAD_CAT_ID":55402,"ELEMENT_SET_NO":999,"REV_AT_EPOCH":16413,"BSTAR":-7.743444e-5,"MEAN_MOTION_DOT":-1.017e-5,"MEAN_MOTION_DDOT":0},{"OBJECT_NAME":"STARLINK-5597","OBJECT_ID":"2023-014N","EPOCH":"2026-01-15T19:14:46.850496","MEAN_MOTION":14.98331334,"ECCENTRICITY":0.00029743,"INCLINATION":69.9995,"RA_OF_ASC_NODE":197.79,"ARG_OF_PERICENTER":266.3134,"MEAN_ANOMALY":93.7685,"EPHEMERIS_TYPE":0,"CLASSIFICATION_TYPE":"U","NORAD_CAT_ID":55403,"ELEMENT_SET_NO":999,"REV_AT_EPOCH":16413,"BSTAR":5.0878833e-5,"MEAN_MOTION_DOT":5.14e-6,"MEAN_MOTION_DDOT":0},{"OBJECT_NAME":"STARLINK-5607","OBJECT_ID":"2023-014P","EPOCH":"2026-01-15T22:57:06.951744","MEAN_MOTION":14.98338198,"ECCENTRICITY":0.00028168,"INCLINATION":69.9998,"RA_OF_ASC_NODE":197.5269,"ARG_OF_PERICENTER":270.6893,"MEAN_ANOMALY":89.3943,"EPHEMERIS_TYPE":0,"CLASSIFICATION_TYPE":"U","NORAD_CAT_ID":55404,"ELEMENT_SET_NO":999,"REV_AT_EPOCH":16415,"BSTAR":4.8249704e-5,"MEAN_MOTION_DOT":4.83e-6,"MEAN_MOTION_DDOT":0},{"OBJECT_NAME":"STARLINK-5623","OBJECT_ID":"2023-014Q","EPOCH":"2026-01-15T19:26:49.550208","MEAN_MOTION":14.9832642,"ECCENTRICITY":0.00023763,"INCLINATION":69.9994,"RA_OF_ASC_NODE":197.8207,"ARG_OF_PERICENTER":270.2834,"MEAN_ANOMALY":89.8053,"EPHEMERIS_TYPE":0,"CLASSIFICATION_TYPE":"U","NORAD_CAT_ID":55405,"ELEMENT_SET_NO":999,"REV_AT_EPOCH":16413,"BSTAR":5.5816474e-5,"MEAN_MOTION_DOT":5.73e-6,"MEAN_MOTION_DDOT":0},{"OBJECT_NAME":"STARLINK-5630","OBJECT_ID":"2023-014R","EPOCH":"2026-01-15T21:27:00.714528","MEAN_MOTION":14.98317862,"ECCENTRICITY":0.00029174,"INCLINATION":70.0006,"RA_OF_ASC_NODE":197.711,"ARG_OF_PERICENTER":265.058,"MEAN_ANOMALY":95.0246,"EPHEMERIS_TYPE":0,"CLASSIFICATION_TYPE":"U","NORAD_CAT_ID":55406,"ELEMENT_SET_NO":999,"REV_AT_EPOCH":16414,"BSTAR":1.1914714e-5,"MEAN_MOTION_DOT":4.9e-7,"MEAN_MOTION_DDOT":0},{"OBJECT_NAME":"STARLINK-5019","OBJECT_ID":"2023-014S","EPOCH":"2026-01-15T19:38:49.435872","MEAN_MOTION":14.98332345,"ECCENTRICITY":0.00023036,"INCLINATION":69.9997,"RA_OF_ASC_NODE":197.8493,"ARG_OF_PERICENTER":279.3958,"MEAN_ANOMALY":80.6941,"EPHEMERIS_TYPE":0,"CLASSIFICATION_TYPE":"U","NORAD_CAT_ID":55407,"ELEMENT_SET_NO":999,"REV_AT_EPOCH":16413,"BSTAR":-7.19101e-7,"MEAN_MOTION_DOT":-1.01e-6,"MEAN_MOTION_DDOT":0},{"OBJECT_NAME":"STARLINK-5092","OBJECT_ID":"2023-014T","EPOCH":"2026-01-16T00:00:02.000160","MEAN_MOTION":15.18695204,"ECCENTRICITY":0.00037845,"INCLINATION":70.0016,"RA_OF_ASC_NODE":196.7861,"ARG_OF_PERICENTER":289.0759,"MEAN_ANOMALY":171.6465,"EPHEMERIS_TYPE":0,"CLASSIFICATION_TYPE":"U","NORAD_CAT_ID":55408,"ELEMENT_SET_NO":999,"REV_AT_EPOCH":572,"BSTAR":0.002080787,"MEAN_MOTION_DOT":0.00043416,"MEAN_MOTION_DDOT":0},{"OBJECT_NAME":"STARLINK-5633","OBJECT_ID":"2023-014V","EPOCH":"2026-01-15T19:09:05.425344","MEAN_MOTION":14.98331743,"ECCENTRICITY":0.00027082,"INCLINATION":69.9991,"RA_OF_ASC_NODE":217.6447,"ARG_OF_PERICENTER":271.1977,"MEAN_ANOMALY":88.8871,"EPHEMERIS_TYPE":0,"CLASSIFICATION_TYPE":"U","NORAD_CAT_ID":55410,"ELEMENT_SET_NO":999,"REV_AT_EPOCH":16364,"BSTAR":4.1737916e-5,"MEAN_MOTION_DOT":4.05e-6,"MEAN_MOTION_DDOT":0},{"OBJECT_NAME":"STARLINK-5605","OBJECT_ID":"2023-014W","EPOCH":"2026-01-15T21:39:00.325440","MEAN_MOTION":14.9832737,"ECCENTRICITY":0.0002562,"INCLINATION":69.9997,"RA_OF_ASC_NODE":197.7407,"ARG_OF_PERICENTER":273.1438,"MEAN_ANOMALY":86.9428,"EPHEMERIS_TYPE":0,"CLASSIFICATION_TYPE":"U","NORAD_CAT_ID":55411,"ELEMENT_SET_NO":999,"REV_AT_EPOCH":16414,"BSTAR":1.1766694e-5,"MEAN_MOTION_DOT":4.7e-7,"MEAN_MOTION_DDOT":0},{"OBJECT_NAME":"STARLINK-5060","OBJECT_ID":"2023-014Y","EPOCH":"2026-01-15T17:26:56.663808","MEAN_MOTION":14.98330826,"ECCENTRICITY":0.00027953,"INCLINATION":69.9989,"RA_OF_ASC_NODE":217.7985,"ARG_OF_PERICENTER":272.7808,"MEAN_ANOMALY":87.3031,"EPHEMERIS_TYPE":0,"CLASSIFICATION_TYPE":"U","NORAD_CAT_ID":55413,"ELEMENT_SET_NO":999,"REV_AT_EPOCH":16363,"BSTAR":7.240775e-6,"MEAN_MOTION_DOT":-7.0e-8,"MEAN_MOTION_DDOT":0},{"OBJECT_NAME":"STARLINK-5620","OBJECT_ID":"2023-014Z","EPOCH":"2026-01-15T19:27:07.035840","MEAN_MOTION":14.98335277,"ECCENTRICITY":0.00022302,"INCLINATION":70.0007,"RA_OF_ASC_NODE":217.6889,"ARG_OF_PERICENTER":257.6039,"MEAN_ANOMALY":102.487,"EPHEMERIS_TYPE":0,"CLASSIFICATION_TYPE":"U","NORAD_CAT_ID":55414,"ELEMENT_SET_NO":999,"REV_AT_EPOCH":16364,"BSTAR":8.0547882e-5,"MEAN_MOTION_DOT":8.68e-6,"MEAN_MOTION_DDOT":0},{"OBJECT_NAME":"STARLINK-5624","OBJECT_ID":"2023-014AB","EPOCH":"2026-01-15T19:39:08.977824","MEAN_MOTION":14.98331884,"ECCENTRICITY":0.00027092,"INCLINATION":69.9987,"RA_OF_ASC_NODE":217.7192,"ARG_OF_PERICENTER":265.8839,"MEAN_ANOMALY":94.201,"EPHEMERIS_TYPE":0,"CLASSIFICATION_TYPE":"U","NORAD_CAT_ID":55416,"ELEMENT_SET_NO":999,"REV_AT_EPOCH":16364,"BSTAR":-3.8140066e-5,"MEAN_MOTION_DOT":-5.48e-6,"MEAN_MOTION_DDOT":0},{"OBJECT_NAME":"STARLINK-5030","OBJECT_ID":"2023-014AD","EPOCH":"2026-01-15T23:03:26.104320","MEAN_MOTION":14.98329651,"ECCENTRICITY":0.00025376,"INCLINATION":69.9985,"RA_OF_ASC_NODE":217.4116,"ARG_OF_PERICENTER":268.2102,"MEAN_ANOMALY":91.8766,"EPHEMERIS_TYPE":0,"CLASSIFICATION_TYPE":"U","NORAD_CAT_ID":55418,"ELEMENT_SET_NO":999,"REV_AT_EPOCH":16366,"BSTAR":2.3920689e-5,"MEAN_MOTION_DOT":1.92e-6,"MEAN_MOTION_DDOT":0},{"OBJECT_NAME":"STARLINK-5629","OBJECT_ID":"2023-014AE","EPOCH":"2026-01-15T19:33:08.018496","MEAN_MOTION":14.98328988,"ECCENTRICITY":0.00027276,"INCLINATION":69.999,"RA_OF_ASC_NODE":217.7048,"ARG_OF_PERICENTER":267.4551,"MEAN_ANOMALY":92.6296,"EPHEMERIS_TYPE":0,"CLASSIFICATION_TYPE":"U","NORAD_CAT_ID":55419,"ELEMENT_SET_NO":999,"REV_AT_EPOCH":16364,"BSTAR":-0.00021620903,"MEAN_MOTION_DOT":-2.672e-5,"MEAN_MOTION_DDOT":0},{"OBJECT_NAME":"STARLINK-5604","OBJECT_ID":"2023-014AF","EPOCH":"2026-01-15T20:26:32.080416","MEAN_MOTION":14.98335145,"ECCENTRICITY":0.00025881,"INCLINATION":70.0005,"RA_OF_ASC_NODE":177.7009,"ARG_OF_PERICENTER":286.5261,"MEAN_ANOMALY":73.5613,"EPHEMERIS_TYPE":0,"CLASSIFICATION_TYPE":"U","NORAD_CAT_ID":55420,"ELEMENT_SET_NO":999,"REV_AT_EPOCH":16463,"BSTAR":0.00017234022,"MEAN_MOTION_DOT":1.964e-5,"MEAN_MOTION_DDOT":0}]
