STARLINK-5076           
1 55401U 23014L   26015.79358049  .00000429  00000+0  43748-4 0  9998
2 55401  69.9988 197.7615 0002836 271.9434  88.1401 14.98331964164136
STARLINK-5071           
1 55402U 23014M   26015.81444792 -.00001017  00000+0 -77434-4 0  9998
2 55402  70.0001 197.8352 0002713 261.8839  98.2012 14.98340821164138
STARLINK-5597           
1 55403U 23014N   26015.80193114  .00000514  00000+0  50879-4 0  9990
2 55403  69.9995 197.7900 0002974 266.3134  93.7685 14.98331334164138
STARLINK-5607           
1 55404U 23014P   26015.95633046  .00000483  00000+0  48250-4 0  9995
2 55404  69.9998 197.5269 0002816 270.6893  89.3943 14.98338198164158
STARLINK-5623           
1 55405U 23014Q   26015.81029572  .00000573  00000+0  55816-4 0  9990
2 55405  69.9994 197.8207 0002376 270.2834  89.8053 14.98326420164132
STARLINK-5630           
1 55406U 23014R   26015.89375827  .00000049  00000+0  11915-4 0  9996
2 55406  70.0006 197.7110 0002917 265.0580  95.0246 14.98317862164147
STARLINK-5019           
1 55407U 23014S   26015.81862773 -.00000101  00000+0 -71910-6 0  9994
2 55407  69.9997 197.8493 0002303 279.3958  80.6941 14.98332345164139
STARLINK-5092           
1 55408U 23014T   26016.00002315  .00043416  00000+0  20808-2 0  9995
2 55408  70.0016 196.7861 0003784 289.0759 171.6465 15.18695204  5723
STARLINK-5633           
1 55410U 23014V   26015.79797946  .00000405  00000+0  41738-4 0  9992
2 55410  69.9991 217.6447 0002708 271.1977  88.8871 14.98331743163645
STARLINK-5605           
1 55411U 23014W   26015.90208710  .00000047  00000+0  11767-4 0  9993
2 55411  69.9997 197.7407 0002562 273.1438  86.9428 14.98327370164142
STARLINK-5060           
1 55413U 23014Y   26015.72704472 -.00000007  00000+0  72408-5 0  9998
2 55413  69.9989 217.7985 0002795 272.7808  87.3031 14.98330826163631
STARLINK-5620           
1 55414U 23014Z   26015.81049810  .00000868  00000+0  80548-4 0  9994
2 55414  70.0007 217.6889 0002230 257.6039 102.4870 14.98335277163646
STARLINK-5624           
1 55416U 23014AB  26015.81885391 -.00000548  00000+0 -38140-4 0  9996
2 55416  69.9987 217.7192 0002709 265.8839  94.2010 14.98331884163644
STARLINK-5030           
1 55418U 23014AD  26015.96071880  .00000192  00000+0  23921-4 0  9998
2 55418  69.9985 217.4116 0002537 268.2102  91.8766 14.98329651163668
STARLINK-5629           
1 55419U 23014AE  26015.81467614 -.00002672  00000+0 -21621-3 0  9998
2 55419  69.9990 217.7048 0002727 267.4551  92.6296 14.98328988163649
STARLINK-5604           
1 55420U 23014AF  26015.85176019  .00001964  00000+0  17234-3 0  9996
2 55420  70.0005 177.7009 0002588 286.5261  73.5613 14.98335145164632
